OBJECT_NAME,OBJECT_ID,EPOCH,MEAN_MOTION,ECCENTRICITY,INCLINATION,RA_OF_ASC_NODE,ARG_OF_PERICENTER,MEAN_ANOMALY,EPHEMERIS_TYPE,CLASSIFICATION_TYPE,NORAD_CAT_ID,ELEMENT_SET_NO,REV_AT_EPOCH,BSTAR,MEAN_MOTION_DOT,MEAN_MOTION_DDOT
HODOYOSHI-4,2014-033B,2026-06-13T19:21:25.413696,14.88123637,.0022684,97.5451,349.7929,320.2785,39.6770,0,U,40011,999,64830,.22389E-3,.2018E-4,0
DEIMOS-2,2014-033D,2026-06-13T21:37:01.533216,14.93717159,.0001742,97.5843,39.5057,49.7621,310.3751,0,U,40013,999,63723,.95245E-4,.954E-5,0
HODOYOSHI-3,2014-033F,2026-06-13T09:54:12.245472,14.85381467,.00330508,97.6413,327.6052,9.7450,350.4399,0,U,40015,999,64706,.11633447E-3,.958E-5,0
SPOT 7,2014-034A,2026-06-13T19:48:52.975296,14.60955447,.0001189,98.0636,227.4036,88.2216,271.9121,0,U,40053,999,63664,.83941E-4,.366E-5,0
SKYSAT-B,2014-037D,2026-06-13T19:55:27.829344,14.88020172,.0004306,98.3838,123.6037,296.3331,63.7442,0,U,40072,999,64546,.14548E-3,.1274E-4,0
WORLDVIEW-3 (WV-3),2014-048A,2026-06-13T20:46:38.491392,14.85017113,.000125,97.8566,239.7444,30.0894,330.0393,0,U,40115,999,64141,.98943E-4,.791E-5,0
GAOFEN-2,2014-049A,2026-06-13T20:46:21.926784,14.80894122,.0006017,98.0116,229.0755,239.8995,120.1620,0,U,40118,999,63874,.64107E-4,.442E-5,0
YAOGAN-21,2014-053A,2026-06-13T21:13:58.842912,15.26327898,.0010002,97.1479,205.2614,103.0679,257.1677,0,U,40143,999,65445,.24338E-3,.6259E-4,0
YAOGAN-22,2014-063A,2026-06-13T20:08:47.782752,13.15530964,.0006265,100.7719,316.0571,192.8289,167.2663,0,U,40275,999,55937,.38389E-4,-.32E-6,0
ASNARO,2014-070A,2026-06-13T20:47:40.316640,15.19389092,.000527,97.3462,241.0699,175.0712,185.0576,0,U,40298,999,64350,.33996E-3,.7131E-4,0
YAOGAN-24,2014-072A,2026-06-13T21:30:46.442304,14.76221428,.0012522,98.1477,302.2067,275.4596,84.5184,0,U,40310,999,62323,.18312E-3,.1215E-4,0
CBERS 4,2014-079A,2026-06-13T19:56:31.689312,14.35507649,.000192,98.3539,221.7675,65.8726,294.2661,0,U,40336,999,60347,.14957E-4,.1E-7,0
YAOGAN-26,2014-088A,2026-06-13T21:35:58.500960,15.47232323,.000629,97.0636,165.1855,74.6633,285.5312,0,U,40362,999,63719,.53851E-3,.27393E-3,0
SMAP,2015-003A,2026-06-13T20:47:19.808736,14.63364027,.0001297,98.1276,172.0078,95.2427,264.8923,0,U,40376,999,60713,.86103E-4,.398E-5,0
KOMPSAT-3A,2015-014A,2026-06-13T21:26:19.561344,15.53854171,.0056184,97.6879,156.0148,186.4543,173.5992,0,U,40536,999,62130,.40358E-3,.27749E-3,0
SENTINEL-2A,2015-028A,2026-06-13T20:35:34.789920,14.30813631,.0001097,98.5689,239.7566,89.1139,271.0170,0,U,40697,999,57325,-.24752E-4,-.108E-5,0
GAOFEN-8,2015-030A,2026-06-13T20:25:51.393792,15.45849536,.0008403,97.6902,358.0226,198.6181,161.4761,0,U,40701,999,61093,.53119E-3,.25766E-3,0
CARBONITE 1 (CBNT-1),2015-032D,2026-06-13T19:26:43.025280,14.83579730,.001334,97.6502,343.0188,310.4618,49.5433,0,U,40718,999,58884,.23578E-3,.1895E-4,0
YAOGAN-27,2015-040A,2026-06-13T20:03:23.125248,13.16070132,.0007599,100.1146,151.3634,218.6951,141.3619,0,U,40878,999,51722,-.25968E-3,-.141E-5,0
GAOFEN-9 01,2015-047A,2026-06-13T21:23:12.366240,14.82878201,.0028164,97.6276,200.7356,148.2670,212.0249,0,U,40894,999,57970,.12242E-3,.948E-5,0
YAOGAN-28,2015-064A,2026-06-13T20:24:49.151232,15.27384281,.0010327,97.3066,303.1801,195.1069,164.9863,0,U,41026,999,59017,.27257E-3,.7246E-4,0
YAOGAN-29,2015-069A,2026-06-13T20:55:29.900640,14.83081356,.0002771,98.0033,193.4992,59.3891,300.7595,0,U,41038,999,57013,-.42718E-5,-.89E-6,0
KENT RIDGE 1,2015-077B,2026-06-13T16:37:26.873760,15.23112968,.0008249,14.9789,291.9825,189.0994,170.9179,0,U,41167,999,58056,.14066E-3,.4186E-4,0
GAOFEN-4,2015-083A,2026-06-13T20:51:07.731072,1.00270524,.0004338,0.3474,83.8624,114.2055,122.6039,0,U,41194,999,3849,0,-.325E-5,0
JASON-3,2016-002A,2026-06-13T19:38:09.608928,12.87627995,.0008552,66.0400,132.9180,272.9435,87.0604,0,U,41240,999,48681,.57697E-5,-.61E-6,0
SENTINEL-3A,2016-011A,2026-06-13T20:24:28.187136,14.26739130,.0001384,98.6249,232.2818,102.7716,257.3619,0,U,41335,999,53758,.60272E-4,.102E-5,0
ZIYUAN 3-02 (ZY 3-02),2016-033A,2026-06-13T20:03:09.156960,15.21451760,.0011291,97.3842,240.6739,303.2066,56.8087,0,U,41556,999,55747,.25168E-3,.5595E-4,0
CARTOSAT-2C,2016-040A,2026-06-13T19:59:45.589056,15.19292632,.0010281,97.4491,224.8573,141.9607,218.2356,0,U,41599,999,55320,.20195E-3,.4198E-4,0
SKYSAT-C1,2016-040C,2026-06-13T19:54:13.559904,15.36249100,.0003746,96.9565,196.7310,65.1190,295.0444,0,U,41601,999,55735,.27056E-3,.9488E-4,0
LAPAN-A3,2016-040E,2026-06-13T20:41:50.725824,15.33085272,.0011269,97.1482,161.1172,36.8796,323.3220,0,U,41603,999,55430,.11111E-3,.3482E-4,0
GAOFEN-3,2016-049A,2026-06-13T21:25:19.532352,14.42214678,.000132,98.4009,172.7279,99.4754,260.6585,0,U,41727,999,51817,-.17339E-4,-.101E-5,0
