HODOYOSHI-4             
1 40011U 14033B   26164.80654414  .00002018  00000+0  22389-3 0  9995
2 40011  97.5451 349.7929 0022684 320.2785  39.6770 14.88123637648307
DEIMOS-2                
1 40013U 14033D   26164.90071219  .00000954  00000+0  95245-4 0  9993
2 40013  97.5843  39.5057 0001742  49.7621 310.3751 14.93717159637236
HODOYOSHI-3             
1 40015U 14033F   26164.41264173  .00000958  00000+0  11633-3 0  9996
2 40015  97.6413 327.6052 0033050   9.7450 350.4399 14.85381467647066
SPOT 7                  
1 40053U 14034A   26164.82561314  .00000366  00000+0  83941-4 0  9996
2 40053  98.0636 227.4036 0001189  88.2216 271.9121 14.60955447636649
SKYSAT-B                
1 40072U 14037D   26164.83018321  .00001274  00000+0  14548-3 0  9991
2 40072  98.3838 123.6037 0004306 296.3331  63.7442 14.88020172645460
WORLDVIEW-3 (WV-3)      
1 40115U 14048A   26164.86572328  .00000791  00000+0  98943-4 0  9991
2 40115  97.8566 239.7444 0001250  30.0894 330.0393 14.85017113641417
GAOFEN-2                
1 40118U 14049A   26164.86553156  .00000442  00000+0  64107-4 0  9991
2 40118  98.0116 229.0755 0006017 239.8995 120.1620 14.80894122638749
YAOGAN-21               
1 40143U 14053A   26164.88470883  .00006259  00000+0  24338-3 0  9994
2 40143  97.1479 205.2614 0010002 103.0679 257.1677 15.26327898654450
YAOGAN-22               
1 40275U 14063A   26164.83944193 -.00000032  00000+0  38389-4 0  9992
2 40275 100.7719 316.0571 0006265 192.8289 167.2663 13.15530964559373
ASNARO                  
1 40298U 14070A   26164.86643885  .00007131  00000+0  33996-3 0  9996
2 40298  97.3462 241.0699 0005270 175.0712 185.0576 15.19389092643501
YAOGAN-24               
1 40310U 14072A   26164.89637086  .00001215  00000+0  18312-3 0  9994
2 40310  98.1477 302.2067 0012522 275.4596  84.5184 14.76221428623239
CBERS 4                 
1 40336U 14079A   26164.83092233  .00000001  00000+0  14957-4 0  9996
2 40336  98.3539 221.7675 0001920  65.8726 294.2661 14.35507649603475
YAOGAN-26               
1 40362U 14088A   26164.89998265  .00027393  00000+0  53851-3 0  9999
2 40362  97.0636 165.1855 0006290  74.6633 285.5312 15.47232323637199
SMAP                    
1 40376U 15003A   26164.86620149  .00000398  00000+0  86103-4 0  9995
2 40376  98.1276 172.0078 0001297  95.2427 264.8923 14.63364027607135
KOMPSAT-3A              
1 40536U 15014A   26164.89328196  .00027749  00000+0  40358-3 0  9995
2 40536  97.6879 156.0148 0056184 186.4543 173.5992 15.53854171621304
SENTINEL-2A             
1 40697U 15028A   26164.85804155 -.00000108  00000+0 -24752-4 0  9991
2 40697  98.5689 239.7566 0001097  89.1139 271.0170 14.30813631573259
GAOFEN-8                
1 40701U 15030A   26164.85128928  .00025766  00000+0  53119-3 0  9990
2 40701  97.6902 358.0226 0008403 198.6181 161.4761 15.45849536610937
CARBONITE 1 (CBNT-1)    
1 40718U 15032D   26164.81022020  .00001895  00000+0  23578-3 0  9995
2 40718  97.6502 343.0188 0013340 310.4618  49.5433 14.83579730588840
YAOGAN-27               
1 40878U 15040A   26164.83568432 -.00000141  00000+0 -25968-3 0  9995
2 40878 100.1146 151.3634 0007599 218.6951 141.3619 13.16070132517223
GAOFEN-9 01             
1 40894U 15047A   26164.89111535  .00000948  00000+0  12242-3 0  9998
2 40894  97.6276 200.7356 0028164 148.2670 212.0249 14.82878201579705
YAOGAN-28               
1 41026U 15064A   26164.85056888  .00007246  00000+0  27257-3 0  9990
2 41026  97.3066 303.1801 0010327 195.1069 164.9863 15.27384281590176
YAOGAN-29               
1 41038U 15069A   26164.87187385 -.00000089  00000+0 -42718-5 0  9998
2 41038  98.0033 193.4992 0002771  59.3891 300.7595 14.83081356570134
KENT RIDGE 1            
1 41167U 15077B   26164.69267215  .00004186  00000+0  14066-3 0  9994
2 41167  14.9789 291.9825 0008249 189.0994 170.9179 15.23112968580564
GAOFEN-4                
1 41194U 15083A   26164.86883948 -.00000325  00000+0  00000+0 0  9998
2 41194   0.3474  83.8624 0004338 114.2055 122.6039  1.00270524 38494
JASON-3                 
1 41240U 16002A   26164.81816677 -.00000061  00000+0  57697-5 0  9999
2 41240  66.0400 132.9180 0008552 272.9435  87.0604 12.87627995486813
SENTINEL-3A             
1 41335U 16011A   26164.85032624  .00000102  00000+0  60272-4 0  9997
2 41335  98.6249 232.2818 0001384 102.7716 257.3619 14.26739130537589
ZIYUAN 3-02 (ZY 3-02)   
1 41556U 16033A   26164.83552265  .00005595  00000+0  25168-3 0  9997
2 41556  97.3842 240.6739 0011291 303.2066  56.8087 15.21451760557475
CARTOSAT-2C             
1 41599U 16040A   26164.83316654  .00004198  00000+0  20195-3 0  9995
2 41599  97.4491 224.8573 0010281 141.9607 218.2356 15.19292632553207
SKYSAT-C1               
1 41601U 16040C   26164.82932361  .00009488  00000+0  27056-3 0  9997
2 41601  96.9565 196.7310 0003746  65.1190 295.0444 15.36249100557357
LAPAN-A3                
1 41603U 16040E   26164.86239266  .00003482  00000+0  11111-3 0  9990
2 41603  97.1482 161.1172 0011269  36.8796 323.3220 15.33085272554302
GAOFEN-3                
1 41727U 16049A   26164.89258718 -.00000101  00000+0 -17339-4 0  9998
2 41727  98.4009 172.7279 0001320  99.4754 260.6585 14.42214678518175
